*******************************************************************************
Ephemeris / WWW_USER Mon Mar 24 08:40:02 2025 Pasadena, USA      / Horizons    
*******************************************************************************
Target body name: (2019 AK3)                      {source: JPL#8}
Center body name: Earth (399)                     {source: DE441}
Center-site name: Mauna Kea
*******************************************************************************
Start time      : A.D. 2018-Dec-31 04:03:00.0000 UT      
Stop  time      : A.D. 2018-Dec-31 16:46:00.0000 UT      
Step-size       : 1 minutes
*******************************************************************************
Target pole/equ : undefined
Target radii    : undefined                                                    
Center geodetic : 204.5278, 19.8260847, 4.21024   {E-lon(deg),Lat(deg),Alt(km)}
Center cylindric: 204.5278, 6006.35451, 2151.0229 {E-lon(deg),Dxy(km),Dz(km)}
Center pole/equ : ITRF93                          {East-longitude positive}
Center radii    : 6378.137, 6378.137, 6356.752 km {Equator_a, b, pole_c}       
Target primary  : Sun
Vis. interferer : MOON (R_eq= 1737.400) km        {source: DE441}
Rel. light bend : Sun                             {source: DE441}
Rel. lght bnd GM: 1.3271E+11 km^3/s^2                                          
Small-body perts: Yes                             {source: SB441-N16}
Atmos refraction: NO (AIRLESS)
RA format       : HMS
Time format     : CAL 
Calendar mode   : Mixed Julian/Gregorian
RTS-only print  : NO       
EOP file        : eop.250321.p250617                                           
EOP coverage    : DATA-BASED 1962-JAN-20 TO 2025-MAR-21. PREDICTS-> 2025-JUN-16
Units conversion: 1 au= 149597870.700 km, c= 299792.458 km/s, 1 day= 86400.0 s 
Table cut-offs 1: Elevation (-90.0deg=NO ),Airmass (>38.000=NO), Daylight (YES)
Table cut-offs 2: Solar elongation (  0.0,180.0=NO ),Local Hour Angle( 0.0=NO )
Table cut-offs 3: RA/DEC angular rate (     0.0=NO )                           
*******************************************************************************
Initial IAU76/J2000 heliocentric ecliptic osculating elements (au, days, deg.):
  EPOCH=  2458490.5 ! 2019-Jan-07.00 (TDB)         Residual RMS= .10027        
   EC= .4460441123274964   QR= .8736665173848456   TP= 2458534.5649506859      
   OM= 293.7231565418804   W=  230.0622942544228   IN= 4.899135051513321       
  Equivalent ICRF heliocentric cartesian coordinates (au, au/d):
   X=-2.869453413579581E-01  Y= 8.924440573967301E-01  Z= 3.991223626471717E-01
  VX=-1.652766681412374E-02 VY=-9.271695064707189E-03 VZ=-5.840432387800149E-03
Asteroid physical parameters (km, seconds, rotational period in hours):        
   GM= n.a.                RAD= n.a.               ROTPER= n.a.                
   H= 27.                  G= .150                 B-V= n.a.                   
                           ALBEDO= n.a.            STYP= n.a.                  
*******************************************************************************
 Date__(UT)__HR:MN     R.A._________(ICRF)_________DEC
******************************************************
$$SOE
 2018-Dec-31 12:15  m  07 01 46.633008 +39 19 22.87206
 2018-Dec-31 12:16  m  07 01 46.760124 +39 19 22.85957
 2018-Dec-31 12:17  m  07 01 46.887321 +39 19 22.84585
 2018-Dec-31 12:18  m  07 01 47.014601 +39 19 22.83090
 2018-Dec-31 12:19  m  07 01 47.141965 +39 19 22.81473
 2018-Dec-31 12:20  m  07 01 47.269413 +39 19 22.79733
 2018-Dec-31 12:21  m  07 01 47.396945 +39 19 22.77871
 2018-Dec-31 12:22  m  07 01 47.524563 +39 19 22.75887
 2018-Dec-31 12:23  m  07 01 47.652267 +39 19 22.73781
 2018-Dec-31 12:24  m  07 01 47.780058 +39 19 22.71553
 2018-Dec-31 12:25  m  07 01 47.907936 +39 19 22.69205
 2018-Dec-31 12:26  m  07 01 48.035903 +39 19 22.66735
 2018-Dec-31 12:27  m  07 01 48.163959 +39 19 22.64144
 2018-Dec-31 12:28  m  07 01 48.292105 +39 19 22.61433
 2018-Dec-31 12:29  m  07 01 48.420342 +39 19 22.58601
 2018-Dec-31 12:30  m  07 01 48.548669 +39 19 22.55649
 2018-Dec-31 12:31  m  07 01 48.677088 +39 19 22.52577
 2018-Dec-31 12:32  m  07 01 48.805600 +39 19 22.49385
 2018-Dec-31 12:33  m  07 01 48.934206 +39 19 22.46074
 2018-Dec-31 12:34  m  07 01 49.062905 +39 19 22.42643
 2018-Dec-31 12:35  m  07 01 49.191699 +39 19 22.39094
 2018-Dec-31 12:36  m  07 01 49.320589 +39 19 22.35425
 2018-Dec-31 12:37  m  07 01 49.449574 +39 19 22.31638
 2018-Dec-31 12:38  m  07 01 49.578657 +39 19 22.27733
 2018-Dec-31 12:39  m  07 01 49.707837 +39 19 22.23709
 2018-Dec-31 12:40  m  07 01 49.837115 +39 19 22.19568
 2018-Dec-31 12:41  m  07 01 49.966492 +39 19 22.15309
 2018-Dec-31 12:42  m  07 01 50.095968 +39 19 22.10933
 2018-Dec-31 12:43  m  07 01 50.225545 +39 19 22.06440
 2018-Dec-31 12:44  m  07 01 50.355223 +39 19 22.01830
 2018-Dec-31 12:45  m  07 01 50.485002 +39 19 21.97104
 2018-Dec-31 12:46  m  07 01 50.614884 +39 19 21.92261
 2018-Dec-31 12:47  m  07 01 50.744869 +39 19 21.87302
 2018-Dec-31 12:48  m  07 01 50.874957 +39 19 21.82228
 2018-Dec-31 12:49  m  07 01 51.005150 +39 19 21.77038
 2018-Dec-31 12:50  m  07 01 51.135448 +39 19 21.71733
 2018-Dec-31 12:51  m  07 01 51.265852 +39 19 21.66312
 2018-Dec-31 12:52  m  07 01 51.396362 +39 19 21.60778
 2018-Dec-31 12:53  m  07 01 51.526979 +39 19 21.55129
 2018-Dec-31 12:54  m  07 01 51.657704 +39 19 21.49365
 2018-Dec-31 12:55  m  07 01 51.788538 +39 19 21.43488
 2018-Dec-31 12:56  m  07 01 51.919480 +39 19 21.37498
 2018-Dec-31 12:57  m  07 01 52.050532 +39 19 21.31394
 2018-Dec-31 12:58  m  07 01 52.181695 +39 19 21.25177
 2018-Dec-31 12:59  m  07 01 52.312969 +39 19 21.18848
 2018-Dec-31 13:00  m  07 01 52.444354 +39 19 21.12406
 2018-Dec-31 13:01  m  07 01 52.575852 +39 19 21.05853
 2018-Dec-31 13:02  m  07 01 52.707463 +39 19 20.99187
 2018-Dec-31 13:03  m  07 01 52.839188 +39 19 20.92410
 2018-Dec-31 13:04  m  07 01 52.971027 +39 19 20.85522
 2018-Dec-31 13:05  m  07 01 53.102982 +39 19 20.78523
 2018-Dec-31 13:06  m  07 01 53.235052 +39 19 20.71413
 2018-Dec-31 13:07  m  07 01 53.367238 +39 19 20.64193
 2018-Dec-31 13:08  m  07 01 53.499541 +39 19 20.56864
 2018-Dec-31 13:09  m  07 01 53.631962 +39 19 20.49424
 2018-Dec-31 13:10  m  07 01 53.764501 +39 19 20.41876
 2018-Dec-31 13:11  m  07 01 53.897159 +39 19 20.34218
 2018-Dec-31 13:12  m  07 01 54.029937 +39 19 20.26452
 2018-Dec-31 13:13  m  07 01 54.162835 +39 19 20.18577
 2018-Dec-31 13:14  m  07 01 54.295854 +39 19 20.10594
 2018-Dec-31 13:15  m  07 01 54.428994 +39 19 20.02504
 2018-Dec-31 13:16  m  07 01 54.562257 +39 19 19.94306
 2018-Dec-31 13:17  m  07 01 54.695642 +39 19 19.86001
 2018-Dec-31 13:18  m  07 01 54.829150 +39 19 19.77589
 2018-Dec-31 13:19  m  07 01 54.962783 +39 19 19.69071
 2018-Dec-31 13:20  m  07 01 55.096540 +39 19 19.60447
 2018-Dec-31 13:21  m  07 01 55.230422 +39 19 19.51718
 2018-Dec-31 13:22  m  07 01 55.364431 +39 19 19.42883
 2018-Dec-31 13:23  m  07 01 55.498565 +39 19 19.33942
 2018-Dec-31 13:24  m  07 01 55.632827 +39 19 19.24898
 2018-Dec-31 13:25  m  07 01 55.767217 +39 19 19.15748
 2018-Dec-31 13:26  m  07 01 55.901735 +39 19 19.06495
 2018-Dec-31 13:27  m  07 01 56.036382 +39 19 18.97138
 2018-Dec-31 13:28  m  07 01 56.171159 +39 19 18.87678
 2018-Dec-31 13:29  m  07 01 56.306065 +39 19 18.78115
 2018-Dec-31 13:30  m  07 01 56.441103 +39 19 18.68450
 2018-Dec-31 13:31  m  07 01 56.576272 +39 19 18.58682
 2018-Dec-31 13:32  m  07 01 56.711573 +39 19 18.48812
 2018-Dec-31 13:33  m  07 01 56.847006 +39 19 18.38841
 2018-Dec-31 13:34  m  07 01 56.982573 +39 19 18.28768
 2018-Dec-31 13:35  m  07 01 57.118273 +39 19 18.18595
 2018-Dec-31 13:36  m  07 01 57.254108 +39 19 18.08322
 2018-Dec-31 13:37  m  07 01 57.390078 +39 19 17.97948
 2018-Dec-31 13:38  m  07 01 57.526183 +39 19 17.87475
 2018-Dec-31 13:39  m  07 01 57.662424 +39 19 17.76902
 2018-Dec-31 13:40  m  07 01 57.798803 +39 19 17.66230
 2018-Dec-31 13:41  m  07 01 57.935318 +39 19 17.55460
 2018-Dec-31 13:42  m  07 01 58.071972 +39 19 17.44592
 2018-Dec-31 13:43  m  07 01 58.208763 +39 19 17.33626
 2018-Dec-31 13:44  m  07 01 58.345694 +39 19 17.22562
 2018-Dec-31 13:45  m  07 01 58.482765 +39 19 17.11402
 2018-Dec-31 13:46  m  07 01 58.619976 +39 19 17.00144
 2018-Dec-31 13:47  m  07 01 58.757327 +39 19 16.88791
 2018-Dec-31 13:48  m  07 01 58.894820 +39 19 16.77342
 2018-Dec-31 13:49  m  07 01 59.032454 +39 19 16.65797
 2018-Dec-31 13:50  m  07 01 59.170231 +39 19 16.54157
 2018-Dec-31 13:51  m  07 01 59.308152 +39 19 16.42422
 2018-Dec-31 13:52  m  07 01 59.446215 +39 19 16.30593
 2018-Dec-31 13:53  m  07 01 59.584423 +39 19 16.18670
 2018-Dec-31 13:54  m  07 01 59.722775 +39 19 16.06654
 2018-Dec-31 13:55  m  07 01 59.861273 +39 19 15.94545
 2018-Dec-31 13:56  m  07 01 59.999917 +39 19 15.82342
 2018-Dec-31 13:57  m  07 02 00.138706 +39 19 15.70048
 2018-Dec-31 13:58  m  07 02 00.277643 +39 19 15.57662
 2018-Dec-31 13:59  m  07 02 00.416727 +39 19 15.45184
 2018-Dec-31 14:00  m  07 02 00.555959 +39 19 15.32615
 2018-Dec-31 14:01  m  07 02 00.695339 +39 19 15.19955
 2018-Dec-31 14:02  m  07 02 00.834869 +39 19 15.07206
 2018-Dec-31 14:03  m  07 02 00.974548 +39 19 14.94366
 2018-Dec-31 14:04  m  07 02 01.114377 +39 19 14.81437
 2018-Dec-31 14:05  m  07 02 01.254356 +39 19 14.68419
 2018-Dec-31 14:06  m  07 02 01.394487 +39 19 14.55312
 2018-Dec-31 14:07  m  07 02 01.534769 +39 19 14.42118
 2018-Dec-31 14:08  m  07 02 01.675204 +39 19 14.28835
 2018-Dec-31 14:09  m  07 02 01.815791 +39 19 14.15466
 2018-Dec-31 14:10  m  07 02 01.956531 +39 19 14.02009
 2018-Dec-31 14:11  m  07 02 02.097425 +39 19 13.88466
 2018-Dec-31 14:12  m  07 02 02.238473 +39 19 13.74837
 2018-Dec-31 14:13  m  07 02 02.379676 +39 19 13.61122
 2018-Dec-31 14:14  m  07 02 02.521035 +39 19 13.47322
 2018-Dec-31 14:15  m  07 02 02.662548 +39 19 13.33438
 2018-Dec-31 14:16  m  07 02 02.804219 +39 19 13.19469
 2018-Dec-31 14:17  m  07 02 02.946045 +39 19 13.05416
